P/2011 Y2 (Boattini),e,6.3942,309.2709,132.1548,6.223271,0.0634857,0.71106199,332.2834,07/23.0/2026,2000,g 15.0,4.0
# From MPC194126
C/2012 A1 (PANSTARRS),e,121.0150,277.8608,191.9888,14437,0.0000006,0.99947180,0.0000,11/28.9733/2013,2000,g  6.0,4.0
# From unp
P/2012 A3 (SOHO),e,11.0129,174.5489,219.8354,2.584409,0.2372260,0.76992192,177.7915,07/23.0/2026,2000,g 17.0,4.0
# From MPC194127
P/2012 B1 (PANSTARRS),e,7.6053,36.2097,161.8376,6.546087,0.0588480,0.41076197,282.1670,07/23.0/2026,2000,g  9.0,4.0
# From MPC194127
P/2012 F2 (PANSTARRS),e,14.6901,226.7518,33.3724,6.352013,0.0615654,0.54230486,300.4117,07/23.0/2026,2000,g 12.0,4.0
# From MPC194128
P/2012 G1 (PANSTARRS),e,12.1691,283.2246,266.0271,4.160869,0.1161256,0.33015303,246.4639,07/23.0/2026,2000,g 15.0,4.0
# From MPC194128
C/2012 K1 (PANSTARRS),e,142.6781,317.7936,203.2105,13885,0.0000006,0.99992313,0.0000,08/22.7020/2014,2000,g  5.6,3.2
# From MPEC 2026-O53
P/2012 K3 (Gibbs),e,13.1787,125.8017,172.0991,3.634392,0.1422513,0.42185455,1.0144,07/23.0/2026,2000,g 15.0,4.0
# From MPC194128
C/2012 K8 (Lemmon),h,08/20.1793/2014,105.9520,312.7242,75.8644,1.000784,6.457783,2000,6.0,4.0
# From MPC194129
C/2012 LP26 (Palomar),h,08/12.1300/2015,25.3617,154.1137,145.2492,1.001078,6.565173,2000,6.5,4.0
# From MPC194129
P/2012 O1 (McNaught),e,7.4227,91.8930,238.3318,3.543209,0.1477777,0.59351147,38.8690,07/23.0/2026,2000,g 17.5,4.0
# From MPC194129
P/2012 O2 (McNaught),e,24.4473,120.6529,183.3918,3.630667,0.1424703,0.53129321,16.0479,07/23.0/2026,2000,g 17.0,4.0
# From MPC194129
C/2012 Q1 (Kowalski),e,45.1758,184.4473,139.4755,26.19303,0.0073523,0.63596812,38.8479,07/23.0/2026,2000,g  4.0,4.0
# From MPC194129
P/2012 T3 (PANSTARRS),e,9.5202,114.1401,196.8196,6.026736,0.0666164,0.60518100,346.5274,07/23.0/2026,2000,g 15.0,4.0
# From MPC194130
P/2012 U2 (PANSTARRS),e,10.7512,185.2040,228.5277,7.126363,0.0518086,0.49999227,258.2550,07/23.0/2026,2000,g 12.5,4.0
# From MPC194130
C/2012 X1 (LINEAR),e,44.2687,113.4758,131.9818,158.2727,0.0004950,0.98983363,0.0000,02/15.9523/2014,2000,g  4.8,3.6
# From MPC194130
C/2013 A1 (SidingSpring),h,10/27.1078/2014,128.6867,301.1842,2.5459,1.000105,1.391986,2000,8.2,2.4
# From MPC194131
C/2013 C2 (Tenagra),e,21.3686,247.5630,308.7488,15.87578,0.0155812,0.42625950,61.9957,07/23.0/2026,2000,g  4.0,4.0
# From MPEC 2013-Y32
P/2013 CU129 (PANSTARRS),e,11.8094,45.5793,213.0248,2.905150,0.1990450,0.71528442,232.8853,07/23.0/2026,2000,g 18.0,2.0
# From MPC194131
C/2013 E1 (McNaught),e,158.7085,133.8750,311.3177,6411,0.0000019,0.99878793,0.0000,06/09.0219/2013,2000,g  5.5,4.0
# From MPC194131
P/2013 G1 (Kowalski),e,5.4558,221.2560,51.2948,6.912145,0.0542356,0.51044077,251.4213,07/23.0/2026,2000,g 11.0,4.0
# From MPC194132
P/2013 G4 (PANSTARRS),e,5.9187,339.6157,214.4047,4.432692,0.1056094,0.41015235,157.6302,07/23.0/2026,2000,g 15.0,4.0
# From MPC194132
P/2013 J2 (McNaught),e,15.4891,289.2261,37.8533,6.234808,0.0633096,0.65565426,298.9328,07/23.0/2026,2000,g 13.0,4.0
# From MPC194133
C/2013 P3 (Palomar),h,11/24.9202/2014,93.8414,177.3224,177.3939,1.002013,8.684643,2000,5.5,4.0
# From MPC194133
C/2013 P4 (PANSTARRS),e,4.2603,256.3889,114.0042,14.78220,0.0173419,0.59362220,75.7335,07/23.0/2026,2000,g  7.5,4.0
# From MPC194134
P/2013 R3 (Catalina-PANSTARRS),e,0.8670,341.6496,11.3612,3.027909,0.1870639,0.27903450,159.6746,07/23.0/2026,2000,g 14.0,4.0
# From MPC194134
P/2013 R3-A (Catalina-PANSTARRS),e,0.8659,341.5964,11.4472,3.027661,0.1870868,0.27895889,159.7654,07/23.0/2026,2000,g 14.3,4.0
# From MPC194134
P/2013 R3-B (Catalina-PANSTARRS),e,0.8677,341.6639,11.3940,3.027907,0.1870640,0.27897669,159.6510,07/23.0/2026,2000,g 14.5,4.0
# From MPC194134
P/2013 T1 (PANSTARRS),e,24.2670,10.0341,346.1823,5.857787,0.0695190,0.62337585,328.8877,07/23.0/2026,2000,g 16.5,4.0
# From MPC194134
P/2013 T2 (Schwartz),e,9.4472,0.7758,345.5783,3.493254,0.1509590,0.50004026,6.2936,07/23.0/2026,2000,g 16.0,4.0
# From MPC194135
C/2013 US10 (Catalina),h,11/11.8486/2015,148.9378,186.1357,340.1926,1.000156,0.815389,2000,4.4,4.0
# From MPC194135
C/2013 V4 (Catalina),h,10/10.4756/2015,67.9519,55.5472,40.4857,1.000566,5.186971,2000,6.0,4.0
# From MPC194135
P/2013 W1 (PANSTARRS),e,4.7009,117.8444,1.2795,3.483206,0.1516126,0.59393973,324.1951,07/23.0/2026,2000,g 17.5,4.0
# From MPC194135
C/2013 W2 (PANSTARRS),e,4.8501,178.2692,303.9154,9.615105,0.0330577,0.54783197,140.5676,07/23.0/2026,2000,g 13.5,2.0
# From MPC194135
C/2013 X1 (PANSTARRS),h,04/24.3711/2016,163.0537,132.0357,165.4751,1.000902,1.305395,2000,10.5,2.0
# From MPC194136
P/2013 YG46 (Spacewatch),e,7.0374,35.8318,256.3305,3.239746,0.1690199,0.47986230,211.9345,07/23.0/2026,2000,g 10.0,4.0
# From MPC194136
P/2014 A2 (Hill),e,24.5641,106.6407,356.2690,5.916696,0.0684834,0.64662457,318.8827,07/23.0/2026,2000,g 15.0,4.0
# From MPC194136
C/2014 A4 (SONEAR),h,09/05.4293/2015,121.3414,29.6805,356.9344,1.000006,4.207895,2000,6.0,4.0
# From MPC194136
C/2014 B1 (Schwartz),h,09/10.4029/2017,28.3823,161.2815,345.7938,1.000877,9.539556,2000,4.0,4.0
# From MPC194136
P/2014 C1 (TOTAS),e,3.1902,39.4620,187.8291,4.046090,0.1211019,0.33843386,273.8519,07/23.0/2026,2000,g 15.5,4.0
# From MPC194137
C/2014 F3 (Sheppard-Trujillo),e,6.5207,325.9907,5.0598,14.35267,0.0181261,0.60064792,34.1550,07/23.0/2026,2000,g  6.0,4.0
# From MPC194137
P/2014 L2 (NEOWISE),e,5.1857,149.3010,182.6619,6.317214,0.0620749,0.64580790,272.8748,07/23.0/2026,2000,g 12.0,4.0
# From MPC194138
C/2014 M2 (Christensen),e,32.3406,245.3725,40.8492,1283,0.0000214,0.99459843,0.0000,07/13.2009/2014,2000,g  6.0,4.0
# From MPC194138
P/2014 M4 (PANSTARRS),e,3.3486,263.1575,148.1534,5.862246,0.0694397,0.59564265,292.5737,07/23.0/2026,2000,g 15.0,4.0
# From MPC194138
P/2014 O3 (PANSTARRS),e,7.7889,87.6233,204.4700,7.590008,0.0471347,0.38250195,212.2667,07/23.0/2026,2000,g 10.5,4.0
# From MPC194138
C/2014 OE4 (PANSTARRS),e,81.2838,240.4518,65.8730,20476,0.0000003,0.99969392,0.0000,12/05.2092/2016,2000,g 11.0,2.0
# From MPC191585
C/2014 OG392 (PANSTARRS),e,9.0317,145.8332,255.5853,12.24962,0.0229890,0.18425421,38.0232,07/23.0/2026,2000,g  6.0,4.0
# From MPC194139
C/2014 R3 (PANSTARRS),h,08/08.5941/2016,90.7581,333.9812,113.3669,1.000036,7.265325,2000,6.5,4.0
# From MPC194139
P/2014 U4 (PANSTARRS),e,6.4206,11.8855,347.8358,3.513689,0.1496439,0.46340283,297.4593,07/23.0/2026,2000,g 18.0,4.0
# From MPEC 2026-O53
C/2014 UN271 (Bernardinelli-Bernstein),h,01/16.5226/2031,95.4461,190.0013,326.0891,1.004135,10.959703,2000,2.5,3.2
# From MPC194139
P/2014 V1 (PANSTARRS),e,22.4894,166.1891,177.9748,5.363474,0.0793478,0.52426675,332.9189,07/23.0/2026,2000,g 14.0,4.0
# From MPC194140
P/2014 W4 (PANSTARRS),e,15.2787,33.3033,67.8193,6.578017,0.0584200,0.35520132,224.6139,07/23.0/2026,2000,g 11.0,4.0
# From MPC194141
P/2015 B1 (PANSTARRS),e,18.1015,352.8349,188.6578,9.469462,0.0338233,0.36757708,134.2663,07/23.0/2026,2000,g  8.5,4.0
# From MPC194142
C/2015 D2 (PANSTARRS),e,31.9083,162.6802,292.4272,12.80371,0.0215130,0.56176747,100.5454,07/23.0/2026,2000,g  8.0,4.0
# From MPC194142
C/2015 D3 (PANSTARRS),e,128.5738,156.8754,2.6642,17320,0.0000004,0.99952997,0.0000,04/25.2321/2016,2000,g  5.5,4.0
# From MPC194142
P/2015 D5 (Kowalski),e,20.5408,74.0691,39.7058,8.944243,0.0368459,0.49197795,165.1715,07/23.0/2026,2000,g  9.0,4.0
# From MPC194142
P/2015 D6 (Lemmon-PANSTARRS),e,20.3933,45.1361,126.1213,7.116313,0.0519184,0.36325395,209.5533,07/23.0/2026,2000,g 10.5,4.0
# From MPC194142
C/2015 ER61 (PANSTARRS),e,6.3145,235.0073,68.7030,458.1883,0.0001005,0.99768113,0.0000,05/04.7366/2017,2000,g 11.0,2.0
# From MPC194144
P/2015 M2 (PANSTARRS),e,3.9675,86.5664,225.5097,7.255277,0.0504340,0.17794256,201.1878,07/23.0/2026,2000,g  8.5,4.0
# From MPEC 2021-P47
C/2015 O1 (PANSTARRS),h,02/17.2845/2018,27.1035,299.7015,89.8735,1.001649,3.750827,2000,6.5,4.0
# From MPC194144
P/2015 PD229 (Cameron-ISON),e,2.0188,342.7079,352.6033,7.211767,0.0508911,0.32444725,203.9722,07/23.0/2026,2000,g 11.5,2.0
# From MPC194144
P/2015 R2 (PANSTARRS),e,15.5700,168.5592,149.7861,4.494649,0.1034333,0.45241349,58.5718,07/23.0/2026,2000,g 14.5,4.0
# From MPC194145
C/2015 T5 (Sheppard-Tholen),e,11.0172,311.1715,62.2810,28.40083,0.0065119,0.66938166,24.9311,07/23.0/2026,2000,g  7.5,4.0
# From MPC194145
P/2015 TP200 (LINEAR),e,8.7720,6.8518,82.6996,7.264609,0.0503368,0.53705587,178.5596,07/23.0/2026,2000,g 11.0,4.0
# From MPC194145
C/2015 V1 (PANSTARRS),e,139.1691,197.2957,179.9611,34093,0.0000002,0.99987425,0.0000,12/19.3894/2017,2000,g  6.5,4.0
# From MPEC 2026-L50
C/2015 V2 (Johnson),h,06/09.4469/2017,49.7762,70.0601,164.6820,1.000825,1.631275,2000,5.0,4.0
# From MPC194146
C/2015 XY1 (Lemmon),h,04/27.5306/2018,148.8559,281.5105,196.3688,1.000538,7.959156,2000,5.5,4.0
# From MPC194146
P/2015 X3 (PANSTARRS),e,24.4207,77.2460,307.0098,4.993958,0.0883155,0.43945357,351.8051,07/23.0/2026,2000,g 15.0,4.0
# From MPC194146
C/2015 X5 (PANSTARRS),h,12/28.0448/2017,124.3813,122.1940,27.6994,1.000071,6.820925,2000,7.5,4.0
# From MPC194146
P/2015 X6 (PANSTARRS),e,4.5666,106.9216,329.4548,2.751323,0.2159691,0.17398118,94.6560,07/23.0/2026,2000,g 16.0,4.0
# From MPC194147
C/2016 A1 (PANSTARRS),e,121.2877,128.0180,10.1890,8065,0.0000014,0.99933792,0.0000,11/19.5979/2017,2000,g  6.0,4.0
# From MPC194147
P/2016 A3 (PANSTARRS),e,8.5285,187.0917,340.8433,7.864730,0.0446867,0.38768984,150.6673,07/23.0/2026,2000,g 10.0,4.0
# From MPC194147
P/2016 A7 (PANSTARRS),e,16.1073,219.7480,353.2671,5.082255,0.0860240,0.56839796,333.4067,07/23.0/2026,2000,g 16.0,4.0
# From MPC194147
C/2016 C1 (PANSTARRS),h,02/18.7656/2016,56.1991,181.6960,328.5677,1.001813,8.432586,2000,5.5,4.0
# From MPC194147
C/2016 E1 (PANSTARRS),h,05/26.9194/2017,131.8857,233.1276,47.2309,1.001259,8.163830,2000,6.5,4.0
# From MPC194148
P/2016 G1 (PANSTARRS),e,10.9696,204.0043,111.1152,2.583556,0.2373435,0.20976932,102.7386,07/23.0/2026,2000,g 14.0,4.0
# From MPC194148
C/2016 M1 (PANSTARRS),e,90.7570,92.2943,209.8241,1932,0.0000116,0.99885534,0.0000,08/07.3149/2018,2000,g  5.0,4.0
